TDRS 3                  
1 19548U 88091B   18349.53946729 -.00000292  00000-0  00000+0 0  9996
2 19548  14.3935   2.5212 0037861 311.0030 262.6269  1.00275042 97885
SKYNET 4C               
1 20776U 90079A   18348.70544749  .00000133  00000-0  00000-0 0  9998
2 20776  13.9721  10.8241 0003559 251.2285 108.7403  1.00270809103431
TDRS 5                  
1 21639U 91054B   18349.28068535  .00000092  00000-0  00000+0 0  9992
2 21639  14.6315  15.8230 0021373 337.7382  23.7292  1.00269251100227
TDRS 6                  
1 22314U 93003B   18349.44852757 -.00000285  00000-0  00000+0 0  9999
2 22314  14.2139  18.8614 0006019 298.6537 242.0703  1.00276550 94892
ASTRA 1D                
1 23331U 94070A   18349.52558324 -.00000256  00000-0  00000+0 0  9994
2 23331   8.3518  45.5708 0003599 226.5383 288.2105  1.00269882 88685
AMSC 1                  
1 23553U 95019A   18348.16386260 -.00000088  00000-0  00000-0 0  9995
2 23553  10.7091  35.3277 0003722 267.7918  92.1412  1.00272008 86686
TDRS 7                  
1 23613U 95035B   18348.77140703 -.00000194  00000-0  00000+0 0  9994
2 23613  14.5075   9.5486 0027973   8.3445  68.0352  1.00271529 85669
INMARSAT 3-F1           
1 23839U 96020A   18349.10732135  .00000018  00000-0  00000+0 0  9997
2 23839   5.0157  64.9918 0005484 199.6953 282.1253  1.00270133 83130
ASTRA 1F                
1 23842U 96021A   18348.89910747  .00000150  00000-0  00000-0 0  9992
2 23842   0.0595 311.5615 0004168 305.9116 194.0278  1.00269868 24856
MSAT M1                 
1 23846U 96022A   18349.19051844 -.00000076  00000-0  00000+0 0  9992
2 23846   8.5355  44.9989 0005110 232.4384 127.4554  1.00271702 82959
INMARSAT 3-F2           
1 24307U 96053A   18349.38275156 -.00000114  00000-0  00000+0 0  9997
2 24307   3.7440  74.9564 0006270 203.9938 287.3408  1.00271410 81546
AMC-1 (GE-1)            
1 24315U 96054A   18349.35758257  .00000079  00000-0  00000+0 0  9991
2 24315   2.7226  82.1960 0002871 170.1045 189.4948  1.00272865 81540
INMARSAT 3-F3           
1 24674U 96070A   18349.54388346  .00000047  00000-0  00000+0 0  9991
2 24674   4.5034  69.1207 0004945 197.5503 191.3590  1.00271555 80482
AMC-2 (GE-2)            
1 24713U 97002A   18348.57913047 -.00000203  00000-0  00000+0 0  9990
2 24713   5.3409  63.1903 0005241 197.2407 306.3913  1.00274136 30837
INTELSAT 26 (IS-26)     
1 24732U 97007A   18348.79863912  .00000028  00000-0  00000-0 0  9990
2 24732   8.2645  46.3398 0004276 199.4910 187.2716  1.00271914 45253
GALAXY 25 (G-25)        
1 24812U 97026A   18348.02891827 -.00000152  00000-0  00000-0 0  9991
2 24812   0.6593  94.5078 0003333 169.6522  95.8138  1.00270935 78880
INTELSAT 5 (IS-5)       
1 24916U 97046A   18349.33682974  .00000103  00000-0  00000+0 0  9998
2 24916   4.6121  68.4253 0003811 199.0665 160.7047  1.00272183 78133
AMC-3 (GE-3)            
1 24936U 97050A   18348.86901590 -.00000248  00000-0  00000-0 0  9992
2 24936   1.5534  89.5516 0002597 173.2828  61.4988  1.00271234 24947
NSS-5                   
1 24957U 97053A   18348.89344199  .00000117  00000-0  00000-0 0  9991
2 24957   4.8878  66.6126 0002705 204.1066 184.9304  1.00274570 77698
ASTRA 1G                
1 25071U 97076A   18349.46902804  .00000079  00000-0  00000+0 0  9997
2 25071   3.4463  76.1161 0003478 186.0075  48.0188  1.00274182 77051
INMARSAT 3-F5           
1 25153U 98006B   18349.44687008 -.00000276  00000-0  00000+0 0  9996
2 25153   3.6709  72.6361 0005264 190.7394 287.6012  1.00272109 76403
THOR III                
1 25358U 98035A   18347.93816886 -.00000036  00000-0  00000-0 0  9990
2 25358   6.3369  56.1611 0001856 217.0268 142.8320  1.00272652 75353
INTELSAT 805 (IS-805)   
1 25371U 98037A   18349.45188337 -.00000018  00000-0  00000+0 0  9998
2 25371   1.1959  91.8328 0003287 165.2967 158.7071  1.00271898 75087
ASTRA 2A                
1 25462U 98050A   18349.47766441 -.00000292  00000-0  00000+0 0  9998
2 25462   0.3578 101.5287 0002931 150.5768 103.9823  1.00272794 74262
JCSAT-4A                
1 25630U 99006A   18348.91324708 -.00000191  00000-0  00000-0 0  9990
2 25630   3.4239  77.2218 0002265 188.8195 296.3326  1.00271819 23129
SKYNET 4E               
1 25639U 99009B   18348.88306090 -.00000023  00000-0  00000+0 0  9995
2 25639  10.5496  24.6110 0003161 221.2461 154.3258  1.00272515 72533
ASIASAT 3S              
1 25657U 99013A   18348.19457860 -.00000227  00000-0  00000+0 0  9992
2 25657   3.6259  75.5792 0003411 200.1054  23.2237  1.00270269 72328
NIMIQ 1                 
1 25740U 99027A   18349.16917726 -.00000186  00000-0  00000+0 0  9994
2 25740   0.0457 291.7706 0004924 358.8282 127.5734  1.00271480 71722
ASTRA 1H                
1 25785U 99033A   18349.51232333 -.00000219  00000-0  00000+0 0  9990
2 25785   4.8730  66.7545 0003157 196.5368 284.4602  1.00272354 71309
ABS-7                   
1 25894U 99046A   18348.90101310 -.00000351  00000-0  00000-0 0  9995
2 25894   0.0135  56.9970 0001548 172.4129 294.6149  1.00273587 69642
ABS-6                   
1 25924U 99053A   18340.14493844 -.00000120  00000-0  00000-0 0  9995
2 25924   0.0107 353.2924 0002253 251.7130  41.0868  1.00270831 70298
TELSTAR 12 (ORION 2)    
1 25949U 99059A   18349.15486130 -.00000051  00000-0  00000+0 0  9990
2 25949   2.0709  88.1768 0003014 170.8563 131.2824  1.00271591 70043
AMC-4 (GE-4)            
1 25954U 99060A   18348.14472644  .00000098  00000-0  00000+0 0  9991
2 25954   0.0100 336.3848 0002489 282.8421 100.7580  1.00270643 69990
GALAXY 11 (G-11)        
1 26038U 99071A   18349.17949153  .00000149  00000-0  00000+0 0  9992
2 26038   0.0571 130.7847 0000333 125.2916 297.2391  1.00272050 69598
ASIASTAR                
1 26107U 00016A   18349.47862400 -.00000321  00000-0  00000+0 0  9995
2 26107   2.8182  80.0796 0004327 181.6777  99.6442  1.00270220 68677
EUTELSAT 80A            
1 26369U 00028A   18349.47164514 -.00000030  00000-0  00000+0 0  9996
2 26369   2.1716  84.1179 0004358 198.2364  41.8015  1.00272443 67991
TDRS 8                  
1 26388U 00034A   18348.77575889 -.00000223  00000-0  00000+0 0  9991
2 26388   8.3744  51.4840 0012229 268.2808 132.2250  1.00273623 67683
INTELSAT 9 (IS-9)       
1 26451U 00043A   18349.02892833  .00000129  00000-0  00000+0 0  9996
2 26451   4.5978  68.6242 0004060 190.0080 240.8735  1.00397031 67364
BRASILSAT B4            
1 26469U 00046A   18349.24906513 -.00000158  00000-0  00000+0 0  9996
2 26469   2.7926  81.9186 0002811 200.0339 159.5587  1.00270415 67156
ASTRA 2B                
1 26494U 00054A   18349.17434458  .00000130  00000-0  00000+0 0  9998
2 26494   3.3394  76.7688 0005042 187.1218 262.0371  1.00273071 66756
AMC-7 (GE-7)            
1 26495U 00054B   18349.14233041  .00000100  00000-0  00000+0 0  9998
2 26495   0.0854  91.2283 0002678 183.9768  84.7782  1.00271388 66777
NSS-11 (AAP-1)          
1 26554U 00059A   18348.28074786  .00000035  00000-0  00000+0 0  9999
2 26554   0.0098 346.7355 0002160 286.9404  86.3126  1.00271477 66687
N-SAT-110 (JCSAT-110)   
1 26559U 00060A   18349.04889913 -.00000340  00000-0  00000+0 0  9997
2 26559   0.0393  86.9695 0001513  11.2272 113.1393  1.00278854 66628
AMC-6 (GE-6)            
1 26580U 00067A   18348.86683500 -.00000204  00000-0  00000-0 0  9991
2 26580   0.0238 312.1648 0002464 325.8877  34.4952  1.00271833 66483
INTELSAT 12 (IS-12)     
1 26590U 00068A   18349.34493953  .00000148  00000-0  00000+0 0  9993
2 26590   1.6660  89.3687 0006218 159.9622   3.8998  1.00272136 66310
INTELSAT 1R (IS-1R)     
1 26608U 00072A   18348.84293233 -.00000126  00000-0  00000-0 0  9999
2 26608   1.4548  90.4700 0002125 137.3547 316.2081  1.00271405 13832
ANIK F1                 
1 26624U 00076A   18348.06833018 -.00000065  00000-0  00000+0 0  9997
2 26624   0.0111  34.8325 0001799 177.9958 147.1733  1.00272550 66237
ASTRA 2D                
1 26638U 00081A   18347.94313033  .00000039  00000-0  00000-0 0  9995
2 26638   4.7035  67.5114 0002312 195.5449 164.2316  1.00270008 25418
AMC-8 (GE-8)            
1 26639U 00081B   18349.14276514  .00000116  00000-0  00000+0 0  9997
2 26639   0.0296  57.3925 0002758 209.0091  89.7396  1.00273544 65794
SKYNET 4F               
1 26695U 01005B   18346.43570517 -.00000245  00000-0  00000+0 0  9999
2 26695   9.4682  32.9993 0002471 235.1984 295.7112  1.00269868 65367
EUTELSAT 33C            
1 26719U 01011A   18348.71312507  .00000089  00000-0  00000+0 0  9994
2 26719   0.7149  90.4554 0005098 167.7036 309.0430  1.00271065 65087
INTELSAT 10 (IS-10)     
1 26766U 01019A   18349.46710885  .00000137  00000-0  00000+0 0  9992
2 26766   2.6756  82.3808 0003197 174.0531  43.2929  1.00273297 64443
INTELSAT 901 (IS-901)   
1 26824U 01024A   18349.45175531 -.00000201  00000-0  00000+0 0  9998
2 26824   0.6419  94.1648 0002825 175.8190 307.2076  1.00270842 64115
ASTRA 2C                
1 26853U 01025A   18348.83868753  .00000148  00000-0  00000+0 0  9996
2 26853   1.5779  89.2648 0002697 164.1062 155.6879  1.00271848 64097
INTELSAT 902 (IS-902)   
1 26900U 01039A   18349.46998764  .00000046  00000-0  00000+0 0  9997
2 26900   0.0244  40.5752 0003045 236.3595  38.2932  1.00272264 63287
EUTELSAT 12 WEST B      
1 26927U 01042A   18349.16797635 -.00000088  00000-0  00000+0 0  9998
2 26927   0.0447  25.8296 0005544 243.1835 222.7464  1.00271646 63046
DIRECTV 4S              
1 26985U 01052A   18349.18104889 -.00000102  00000-0  00000+0 0  9995
2 26985   0.0339 289.2976 0002412 321.4774 157.0040  1.00272913 62513
ECHOSTAR 7              
1 27378U 02006A   18349.07506994  .00000011  00000-0  00000+0 0  9991
2 27378   0.0177 318.2253 0001510 317.6230  76.0744  1.00270875 61585
INTELSAT 904 (IS-904)   
1 27380U 02007A   18348.64347120  .00000147  00000-0  00000+0 0  9991
2 27380   0.1885 101.3984 0000598  97.2583 161.3543  1.00273144 61604
